#dP2023  3 16 12  0  0.00000000      96 __u+U ITR00 EXT  IAC
## 2253 388800.00000000   900.00000000 60019 0.5000000000000
+  119   C06C07C08C09C10C11C12C13C14C16C19C20C21C22C23C24C25
+        C26C27C28C29C30C32C33C34C35C36C37C38C39C40C41C42C43
+        C44C45C46E01E02E03E04E05E07E08E09E10E11E12E13E14E15
+        E18E19E21E24E25E26E27E31E33E34E36G01G02G03G04G05G06
+        G07G08G09G10G11G12G13G14G15G16G17G18G19G20G21G22G23
+        G24G25G26G27G28G29G30G31G32J02J03J04R01R02R03R04R05
+        R07R08R09R11R12R13R14R15R16R17R18R19R20R21R22R24R25
++        10  8 10 11 10  9  8 10  9 11  9  8  9  7  7  8  8
++         8 10  9  8  9 10  9  9  9  9  9  9 10 10  9  8  7
++         8  9  9  7  8  8  7  8  8  7  8  7  7  7  8  8  7
++         7  7  7  7  8  9  7  7  7  7  7  7  8  8  7  7  7
++         7  7  8  8  7  8  7  7  8  6  7  7  7  8  8  8  7
++         8  8  7  7  7  7  7  7  8  9 10 10  9  9  8  7  8
++         8  8  9  7  8  8  7  7  8  7  8  9  8  8  9  8  9
%c M  cc GPS ccc cccc cccc cccc cccc ccccc ccccc ccccc ccccc
%c cc cc ccc ccc cccc cccc cccc cccc ccccc ccccc ccccc ccccc
%f  0.0000000  0.000000000  0.00000000000  0.000000000000000
%f  0.0000000  0.000000000  0.00000000000  0.000000000000000
%i    0    0    0    0      0      0      0      0         0
%i    0    0    0    0      0      0      0      0         0
/* IAC                                ULTRA-RAPID PREDICTION
/* S/V CLOCKS ARE ALIGNED TO GNSS TIME                      
/* G:C1WC2W R:C1PC2P E:C1XC5X C:C2IC6I J:C1CC2S             
/* PCV:IGS20_2247 OL/AL:FES2004  NONE     YN ORB:CoN CLK:CoN
*  2023 03 17  1 15  0.00000000
PC06 -17757.682389  26873.421183  27087.667048   -196.101399
PC07  -9545.253221  40290.797396   8447.535411    -31.089145
PC08   -120.550523  24503.287638 -34259.078679    517.964051
PC09  -7786.934083  26343.736118  32248.293471    873.588025
PC10  -4061.691173  42205.978264   2172.351538    -10.848155
PC11  -5029.983650 -14702.068975  23243.880571    709.944503
PC12  13848.711339 -19075.668414  14971.664822    511.091607
PC13   5689.442712  27927.313435 -30813.098329    231.169655
PC14  -6864.030412 -25218.334083  -9676.410715      1.732558
PC16 -20037.458197  26446.531466  26056.647975    136.562889
PC19  11936.236895  18421.002103  17277.087850   -896.164481
PC20   1800.642385  27769.677360   2324.047880    675.810447
PC21  10289.370583 -20975.579223  15264.940726   -908.781809
PC22  15692.097975  -1978.501748  22995.759408   -582.488325
PC23 -25051.895671  -4949.354347  11256.732771   -889.324874
PC24  -4445.377413 -19066.161231 -19914.068569   -286.365749
PC25 -22131.150036 -16195.274548  -5238.474656     88.973528
PC26  13033.835304 -11012.922408 -22093.132553    -92.884406
PC27 -20310.304905  17591.924685  -7521.972519    111.608974
PC28 -25383.331452   7230.227504   9063.543380     81.783267
PC29  15504.893882   8176.924121 -21722.675295     94.458439
PC30  -3779.985320  18913.783999 -20166.096704      0.834795
PC32 -10126.888431  21049.862386 -15255.593803   -598.196369
PC33 -12008.410652 -18414.459183 -17167.691555   -870.971989
PC34   2506.775958 -18574.455898  20670.473074    128.112359
PC35  25044.541695  -7318.759301  -9972.318993    663.207088
PC36  21323.373579  17003.924088   5906.382988   -560.216335
PC37 -14563.851715   9704.934837  21746.702374   -801.869511
PC38  -9491.925216  21387.231805 -35021.633528     65.457063
PC39 -25020.635997  26745.656712  20730.538323     -2.196341
PC40 -14614.258837  38016.421503  11331.676914    -17.744017
PC41 -15722.765243   1325.455635 -22958.576541   -732.349358
PC42   -941.251552 -27859.316870   -946.085243   -783.718986
PC43 -14816.520143  -8939.498802  21876.808251     12.101767
PC44  19806.068365 -18295.073665   7255.871832     46.518669
PC45  24903.011730   4654.873774 -11681.372166    -73.079324
PC46   6209.057632  19295.395395  19155.276894    -40.353643
PE01   4456.653079 -20993.756843 -20395.715432    -15.426427
PE02  -4084.134048  21295.235804  20130.578924     26.755986
PE03 -13385.735181  26246.707242   2904.205981   -659.865318
PE04  -1746.477524 -22768.925985 -18823.480280    -79.956254
PE05 -21010.805623  14342.923111 -15124.914290    -85.784032
PE07  16162.965058   5948.028936  24083.174385    -30.408145
PE08   1537.291663  22828.255550  18789.984657    -52.242220
PE09 -15954.770089  -6015.436688 -24189.441070   -871.430758
PE10 -19734.788926 -12089.523305  18446.401822   -519.591554
PE11 -27095.765149  -6748.018354   9780.146579   1270.983422
PE12  -9935.526606 -15255.573507  23331.749896   -460.998600
PE13  26710.008706   7157.166506 -10577.365748    -17.766102
PE14  10874.191674  18148.929001 -23528.286066    170.391456
PE15   9616.942989  15228.430403 -23486.652051     -7.941322
PE18 -16871.510767  -3631.885716  18502.843881   -275.167379
PE19  15125.684756 -25444.673057   -331.990101  -2991.757717
PE21  16517.690886  -4377.366314 -24176.117833   -517.915441
PE24 -20033.452618 -16863.813133  13806.360630  -1169.106254
PE25 -16680.194220   4004.601267  24121.956373   -601.454141
PE26  27635.002344  -5502.465682   9083.547600     47.571330
PE27  20190.844340  16064.159126 -14498.123268   -536.517146
PE31 -11938.501943 -26847.564369  -3623.849329   -518.737071
PE33  13048.853603 -14248.554575  22434.279095   -449.020155
PE34 -12836.555638  14322.539882 -22503.686711    -35.269416
PE36 -27942.028077   5000.577384  -8359.628329    -27.262279
PG01  14067.454276  13468.451871 -18545.093660    202.084211
PG02 -17226.254333 -11588.868745  17045.947902   -613.797534
PG03  12923.905963  23154.419785   2270.691291   -348.489355
PG04   6552.699294  15378.782992  20624.763511     -5.413040
PG05  -2818.277096 -23181.897429  12370.362755   -119.748108
PG06  23146.708853  -5915.372641  11775.031182    581.762865
PG07  24496.107867   7682.418728   8175.515130    221.614409
PG08  -3102.120538  22460.039209 -13567.370692   -113.271468
PG09  14896.968508   4786.598614  21394.473460   -199.199712
PG10 -15517.169533   1109.287355 -21395.319594    -28.855301
PG11  11350.328415 -12782.836622  20329.062381   -132.573491
PG12 -10024.535517 -24647.761574    182.082725   -352.402407
PG13  11559.754285 -22091.759036  -9034.420373    491.599779
PG14  16870.059013   1855.426363 -20454.973076     -1.973892
PG15   -334.027991 -22747.589656 -13936.001365     22.204861
PG16  -2041.841901  22016.524061  14062.309705   -514.980729
PG17  19730.339647  -8849.066184 -15062.337854    705.850876
PG18 -25887.107527  -4970.906025   3849.699513   -182.816573
PG19  19934.225424 -15773.542017  -7406.457254    291.009060
PG20   4656.240325 -17593.484456  19447.811404    444.588900
PG21   5986.012213  14533.610371 -20950.676575    154.330451
PG22 -18253.219886  18757.008292  -3498.753793    446.603693
PG23 -18113.574438 -10918.336291 -16151.244730     11.033231
PG24 -10212.002018 -14698.949721 -20092.716171   -114.608145
PG25 -16498.871361 -18838.838136   8938.500123    428.264409
PG26 -10740.307321  12240.305764  20817.697310    241.975133
PG27 -12072.792449  23069.367907  -4173.050886     79.510899
PG28 -24005.167854   5884.924425   9686.159991     44.864025
PG29 -11728.809006  -9069.040898  21985.596467   -591.167206
PG30  26306.102756  -1064.438282  -4354.097475   -526.600465
PG31 -21271.668394   7929.719927  13979.129192   -211.767972
PG32 -19284.404131  11956.867177 -13467.425434   -425.488109
PJ02 -26003.253030  23064.439125  28888.016994     -1.202637
PJ03 -35343.983310  19031.722780  -8282.519687      1.049840
PJ04 -20025.568933  30465.065414 -15977.083961     94.159351
PR01  -9904.194875  -6633.749367 -22542.784273     24.903221
PR02 -11335.971450  13199.327767 -18575.850265    -23.122131
PR03  -6123.564080  24450.161062  -3669.241334     74.317560
PR04   2083.361039  21885.483249  12961.034545    179.676222
PR05   9283.956222   7478.268086  22564.806788    109.436777
PR07   5874.174287 -24672.669047   3004.656153     51.905511
PR08  -2284.005708 -21837.985649 -12945.197799    -69.906759
PR09  14967.018459  -1133.911596 -20632.648813    109.558812
PR11 -13820.888571 -18205.521799 -11303.172876    -19.564740
PR12 -20858.383651 -12594.714233   7598.636599     25.725655
PR13 -15910.982079   -602.018070  19909.160478    -33.016174
PR14   -252.544897  13427.119763  21695.018560     24.469446
PR15  14383.506203  18409.058465  10256.640489     90.430435
PR16  20927.643341  12686.181938  -7246.049585     12.458273
PR17 -12872.915924  13112.466401 -17699.538748    613.168762
PR18   4274.465302   9563.896825 -23244.315210     71.829974
PR19  18215.317989   2507.701005 -17682.783394   -225.560067
PR20  24171.894928  -8131.616991   1282.735885    -89.485785
PR21  11352.420490 -12925.917189  18825.492373   -380.874031
PR22  -4910.216522  -9832.513781  23043.835989     75.221157
PR24 -23724.569156   9186.340737  -1879.486676    154.320845
PR25  13595.735937 -12708.227104  17442.521373     57.966863
EOF
